KUIPER-00167            
1 65780U 25217U   25290.18130956  .00050699  00000+0  14419-2 0  9993
2 65780  51.8702 337.9335 0005800 173.0131 187.0937 15.35631799  3347
KUIPER-00168            
1 65781U 25217V   25290.15636626  .00045280  00000+0  12212-2 0  9995
2 65781  51.8738 337.7732 0001885  52.1534 307.9623 15.37346628  3340
KUIPER-00169            
1 65782U 25217W   25290.10235288  .00028494  00000+0  79305-3 0  9995
2 65782  51.8731 338.1575 0003154 132.1660 227.9594 15.36591611  3334
KUIPER-00170            
1 65783U 25217X   25290.11485265  .00032526  00000+0  92891-3 0  9995
2 65783  51.8692 338.2368 0006197 165.8837 194.2323 15.35705707  3339
KUIPER-00171            
1 65784U 25217Y   25290.10750193  .00050601  00000+0  14096-2 0  9994
2 65784  51.8693 338.1920 0004275 154.2028 205.9172 15.36286570  3338
KUIPER-00172            
1 65785U 25217Z   25290.16153948  .00046636  00000+0  12711-2 0  9991
2 65785  51.8734 337.8071 0002394 100.9515 259.1740 15.37007913  3343
KUIPER-00173            
1 65786U 25217AA  25290.16468527  .00035421  00000+0  97591-3 0  9994
2 65786  51.8723 337.8283 0002791 123.0269 237.0986 15.36798058  3343
KUIPER-00174            
1 65787U 25217AB  25290.15773294  .00035537  00000+0  96674-3 0  9993
2 65787  51.8735 337.7789 0002524  70.9291 289.1969 15.37191918  3348
