<?xml version="1.0" encoding="UTF-8"?>
<ndm xmlns:xsi="http://www.w3.org/2001/XMLSchema-instance" xsi:noNamespaceSchemaLocation="https://sanaregistry.org/r/ndmxml_unqualified/ndmxml-2.0.0-master-2.0.xsd">
<omm id="CCSDS_OMM_VERS" version="2.0">
<header><CREATION_DATE/><ORIGINATOR/></header><body><segment><metadata><OBJECT_NAME>KUIPER-00167</OBJECT_NAME><OBJECT_ID>2025-217U</OBJECT_ID><CENTER_NAME>EARTH</CENTER_NAME><REF_FRAME>TEME</REF_FRAME><TIME_SYSTEM>UTC</TIME_SYSTEM><MEAN_ELEMENT_THEORY>SGP4</MEAN_ELEMENT_THEORY></metadata><data><meanElements><EPOCH>2025-10-17T04:21:05.145984</EPOCH><MEAN_MOTION>15.35631799</MEAN_MOTION><ECCENTRICITY>.00058</ECCENTRICITY><INCLINATION>51.8702</INCLINATION><RA_OF_ASC_NODE>337.9335</RA_OF_ASC_NODE><ARG_OF_PERICENTER>173.0131</ARG_OF_PERICENTER><MEAN_ANOMALY>187.0937</MEAN_ANOMALY></meanElements><tleParameters><EPHEMERIS_TYPE>0</EPHEMERIS_TYPE><CLASSIFICATION_TYPE>U</CLASSIFICATION_TYPE><NORAD_CAT_ID>65780</NORAD_CAT_ID><ELEMENT_SET_NO>999</ELEMENT_SET_NO><REV_AT_EPOCH>334</REV_AT_EPOCH><BSTAR>.14419E-2</BSTAR><MEAN_MOTION_DOT>.50699E-3</MEAN_MOTION_DOT><MEAN_MOTION_DDOT>0</MEAN_MOTION_DDOT></tleParameters></data></segment></body></omm>
<omm id="CCSDS_OMM_VERS" version="2.0">
<header><CREATION_DATE/><ORIGINATOR/></header><body><segment><metadata><OBJECT_NAME>KUIPER-00168</OBJECT_NAME><OBJECT_ID>2025-217V</OBJECT_ID><CENTER_NAME>EARTH</CENTER_NAME><REF_FRAME>TEME</REF_FRAME><TIME_SYSTEM>UTC</TIME_SYSTEM><MEAN_ELEMENT_THEORY>SGP4</MEAN_ELEMENT_THEORY></metadata><data><meanElements><EPOCH>2025-10-17T03:45:10.044864</EPOCH><MEAN_MOTION>15.37346628</MEAN_MOTION><ECCENTRICITY>.0001885</ECCENTRICITY><INCLINATION>51.8738</INCLINATION><RA_OF_ASC_NODE>337.7732</RA_OF_ASC_NODE><ARG_OF_PERICENTER>52.1534</ARG_OF_PERICENTER><MEAN_ANOMALY>307.9623</MEAN_ANOMALY></meanElements><tleParameters><EPHEMERIS_TYPE>0</EPHEMERIS_TYPE><CLASSIFICATION_TYPE>U</CLASSIFICATION_TYPE><NORAD_CAT_ID>65781</NORAD_CAT_ID><ELEMENT_SET_NO>999</ELEMENT_SET_NO><REV_AT_EPOCH>334</REV_AT_EPOCH><BSTAR>.12212E-2</BSTAR><MEAN_MOTION_DOT>.4528E-3</MEAN_MOTION_DOT><MEAN_MOTION_DDOT>0</MEAN_MOTION_DDOT></tleParameters></data></segment></body></omm>
<omm id="CCSDS_OMM_VERS" version="2.0">
<header><CREATION_DATE/><ORIGINATOR/></header><body><segment><metadata><OBJECT_NAME>KUIPER-00169</OBJECT_NAME><OBJECT_ID>2025-217W</OBJECT_ID><CENTER_NAME>EARTH</CENTER_NAME><REF_FRAME>TEME</REF_FRAME><TIME_SYSTEM>UTC</TIME_SYSTEM><MEAN_ELEMENT_THEORY>SGP4</MEAN_ELEMENT_THEORY></metadata><data><meanElements><EPOCH>2025-10-17T02:27:23.288832</EPOCH><MEAN_MOTION>15.36591611</MEAN_MOTION><ECCENTRICITY>.0003154</ECCENTRICITY><INCLINATION>51.8731</INCLINATION><RA_OF_ASC_NODE>338.1575</RA_OF_ASC_NODE><ARG_OF_PERICENTER>132.1660</ARG_OF_PERICENTER><MEAN_ANOMALY>227.9594</MEAN_ANOMALY></meanElements><tleParameters><EPHEMERIS_TYPE>0</EPHEMERIS_TYPE><CLASSIFICATION_TYPE>U</CLASSIFICATION_TYPE><NORAD_CAT_ID>65782</NORAD_CAT_ID><ELEMENT_SET_NO>999</ELEMENT_SET_NO><REV_AT_EPOCH>333</REV_AT_EPOCH><BSTAR>.79305E-3</BSTAR><MEAN_MOTION_DOT>.28494E-3</MEAN_MOTION_DOT><MEAN_MOTION_DDOT>0</MEAN_MOTION_DDOT></tleParameters></data></segment></body></omm>
<omm id="CCSDS_OMM_VERS" version="2.0">
<header><CREATION_DATE/><ORIGINATOR/></header><body><segment><metadata><OBJECT_NAME>KUIPER-00170</OBJECT_NAME><OBJECT_ID>2025-217X</OBJECT_ID><CENTER_NAME>EARTH</CENTER_NAME><REF_FRAME>TEME</REF_FRAME><TIME_SYSTEM>UTC</TIME_SYSTEM><MEAN_ELEMENT_THEORY>SGP4</MEAN_ELEMENT_THEORY></metadata><data><meanElements><EPOCH>2025-10-17T02:45:23.268960</EPOCH><MEAN_MOTION>15.35705707</MEAN_MOTION><ECCENTRICITY>.0006197</ECCENTRICITY><INCLINATION>51.8692</INCLINATION><RA_OF_ASC_NODE>338.2368</RA_OF_ASC_NODE><ARG_OF_PERICENTER>165.8837</ARG_OF_PERICENTER><MEAN_ANOMALY>194.2323</MEAN_ANOMALY></meanElements><tleParameters><EPHEMERIS_TYPE>0</EPHEMERIS_TYPE><CLASSIFICATION_TYPE>U</CLASSIFICATION_TYPE><NORAD_CAT_ID>65783</NORAD_CAT_ID><ELEMENT_SET_NO>999</ELEMENT_SET_NO><REV_AT_EPOCH>333</REV_AT_EPOCH><BSTAR>.92891E-3</BSTAR><MEAN_MOTION_DOT>.32526E-3</MEAN_MOTION_DOT><MEAN_MOTION_DDOT>0</MEAN_MOTION_DDOT></tleParameters></data></segment></body></omm>
<omm id="CCSDS_OMM_VERS" version="2.0">
<header><CREATION_DATE/><ORIGINATOR/></header><body><segment><metadata><OBJECT_NAME>KUIPER-00171</OBJECT_NAME><OBJECT_ID>2025-217Y</OBJECT_ID><CENTER_NAME>EARTH</CENTER_NAME><REF_FRAME>TEME</REF_FRAME><TIME_SYSTEM>UTC</TIME_SYSTEM><MEAN_ELEMENT_THEORY>SGP4</MEAN_ELEMENT_THEORY></metadata><data><meanElements><EPOCH>2025-10-17T02:34:48.166752</EPOCH><MEAN_MOTION>15.36286570</MEAN_MOTION><ECCENTRICITY>.0004275</ECCENTRICITY><INCLINATION>51.8693</INCLINATION><RA_OF_ASC_NODE>338.1920</RA_OF_ASC_NODE><ARG_OF_PERICENTER>154.2028</ARG_OF_PERICENTER><MEAN_ANOMALY>205.9172</MEAN_ANOMALY></meanElements><tleParameters><EPHEMERIS_TYPE>0</EPHEMERIS_TYPE><CLASSIFICATION_TYPE>U</CLASSIFICATION_TYPE><NORAD_CAT_ID>65784</NORAD_CAT_ID><ELEMENT_SET_NO>999</ELEMENT_SET_NO><REV_AT_EPOCH>333</REV_AT_EPOCH><BSTAR>.14096E-2</BSTAR><MEAN_MOTION_DOT>.50601E-3</MEAN_MOTION_DOT><MEAN_MOTION_DDOT>0</MEAN_MOTION_DDOT></tleParameters></data></segment></body></omm>
<omm id="CCSDS_OMM_VERS" version="2.0">
<header><CREATION_DATE/><ORIGINATOR/></header><body><segment><metadata><OBJECT_NAME>KUIPER-00172</OBJECT_NAME><OBJECT_ID>2025-217Z</OBJECT_ID><CENTER_NAME>EARTH</CENTER_NAME><REF_FRAME>TEME</REF_FRAME><TIME_SYSTEM>UTC</TIME_SYSTEM><MEAN_ELEMENT_THEORY>SGP4</MEAN_ELEMENT_THEORY></metadata><data><meanElements><EPOCH>2025-10-17T03:52:37.011072</EPOCH><MEAN_MOTION>15.37007913</MEAN_MOTION><ECCENTRICITY>.0002394</ECCENTRICITY><INCLINATION>51.8734</INCLINATION><RA_OF_ASC_NODE>337.8071</RA_OF_ASC_NODE><ARG_OF_PERICENTER>100.9515</ARG_OF_PERICENTER><MEAN_ANOMALY>259.1740</MEAN_ANOMALY></meanElements><tleParameters><EPHEMERIS_TYPE>0</EPHEMERIS_TYPE><CLASSIFICATION_TYPE>U</CLASSIFICATION_TYPE><NORAD_CAT_ID>65785</NORAD_CAT_ID><ELEMENT_SET_NO>999</ELEMENT_SET_NO><REV_AT_EPOCH>334</REV_AT_EPOCH><BSTAR>.12711E-2</BSTAR><MEAN_MOTION_DOT>.46636E-3</MEAN_MOTION_DOT><MEAN_MOTION_DDOT>0</MEAN_MOTION_DDOT></tleParameters></data></segment></body></omm>
<omm id="CCSDS_OMM_VERS" version="2.0">
<header><CREATION_DATE/><ORIGINATOR/></header><body><segment><metadata><OBJECT_NAME>KUIPER-00173</OBJECT_NAME><OBJECT_ID>2025-217AA</OBJECT_ID><CENTER_NAME>EARTH</CENTER_NAME><REF_FRAME>TEME</REF_FRAME><TIME_SYSTEM>UTC</TIME_SYSTEM><MEAN_ELEMENT_THEORY>SGP4</MEAN_ELEMENT_THEORY></metadata><data><meanElements><EPOCH>2025-10-17T03:57:08.807328</EPOCH><MEAN_MOTION>15.36798058</MEAN_MOTION><ECCENTRICITY>.0002791</ECCENTRICITY><INCLINATION>51.8723</INCLINATION><RA_OF_ASC_NODE>337.8283</RA_OF_ASC_NODE><ARG_OF_PERICENTER>123.0269</ARG_OF_PERICENTER><MEAN_ANOMALY>237.0986</MEAN_ANOMALY></meanElements><tleParameters><EPHEMERIS_TYPE>0</EPHEMERIS_TYPE><CLASSIFICATION_TYPE>U</CLASSIFICATION_TYPE><NORAD_CAT_ID>65786</NORAD_CAT_ID><ELEMENT_SET_NO>999</ELEMENT_SET_NO><REV_AT_EPOCH>334</REV_AT_EPOCH><BSTAR>.97591E-3</BSTAR><MEAN_MOTION_DOT>.35421E-3</MEAN_MOTION_DOT><MEAN_MOTION_DDOT>0</MEAN_MOTION_DDOT></tleParameters></data></segment></body></omm>
<omm id="CCSDS_OMM_VERS" version="2.0">
<header><CREATION_DATE/><ORIGINATOR/></header><body><segment><metadata><OBJECT_NAME>KUIPER-00174</OBJECT_NAME><OBJECT_ID>2025-217AB</OBJECT_ID><CENTER_NAME>EARTH</CENTER_NAME><REF_FRAME>TEME</REF_FRAME><TIME_SYSTEM>UTC</TIME_SYSTEM><MEAN_ELEMENT_THEORY>SGP4</MEAN_ELEMENT_THEORY></metadata><data><meanElements><EPOCH>2025-10-17T03:47:08.126016</EPOCH><MEAN_MOTION>15.37191918</MEAN_MOTION><ECCENTRICITY>.0002524</ECCENTRICITY><INCLINATION>51.8735</INCLINATION><RA_OF_ASC_NODE>337.7789</RA_OF_ASC_NODE><ARG_OF_PERICENTER>70.9291</ARG_OF_PERICENTER><MEAN_ANOMALY>289.1969</MEAN_ANOMALY></meanElements><tleParameters><EPHEMERIS_TYPE>0</EPHEMERIS_TYPE><CLASSIFICATION_TYPE>U</CLASSIFICATION_TYPE><NORAD_CAT_ID>65787</NORAD_CAT_ID><ELEMENT_SET_NO>999</ELEMENT_SET_NO><REV_AT_EPOCH>334</REV_AT_EPOCH><BSTAR>.96674E-3</BSTAR><MEAN_MOTION_DOT>.35537E-3</MEAN_MOTION_DOT><MEAN_MOTION_DDOT>0</MEAN_MOTION_DDOT></tleParameters></data></segment></body></omm>

</ndm>
